{"type":"FeatureCollection", "features": [
{"type":"Feature","geometry":{"type":"Polygon","coordinates":[[[106.8412485,-6.3267939],[106.8412951,-6.3266488],[106.8414593,-6.326574],[106.8415738,-6.3266233],[106.8416926,-6.3268193],[106.8417087,-6.3270885],[106.8419047,-6.3274625],[106.8420628,-6.3275364],[106.8422053,-6.3275724],[106.8424613,-6.3275596],[106.8427709,-6.3273605],[106.8429785,-6.3271151],[106.8431918,-6.3267263],[106.8432497,-6.3265567],[106.8432344,-6.3263719],[106.8431987,-6.3259782],[106.8430171,-6.3256196],[106.8429301,-6.3254252],[106.8424867,-6.3247688],[106.842054,-6.3242319],[106.8418737,-6.3239597],[106.8416568,-6.3236918],[106.8413396,-6.3233345],[106.8410798,-6.323187],[106.8406318,-6.3230191],[106.8402246,-6.322826],[106.8400536,-6.3226348],[106.8399958,-6.3224831],[106.8400149,-6.3223099],[106.8400235,-6.3221661],[106.8400981,-6.3220194],[106.8402188,-6.3219607],[106.8405948,-6.3218797],[106.8409012,-6.3217436],[106.8410223,-6.3215682],[106.8410502,-6.3214435],[106.8409947,-6.3213394],[106.8408893,-6.3212089],[106.8407055,-6.3211563],[106.8405299,-6.3212036],[106.8403703,-6.3213062],[106.8398753,-6.3215528],[106.8395737,-6.3216448],[106.8392295,-6.3216754],[106.8387678,-6.3215248],[106.8385442,-6.3213871],[106.8383563,-6.3210512],[106.8383412,-6.3207957],[106.8384597,-6.3205923],[106.8386979,-6.3200786],[106.8390465,-6.31962],[106.83945,-6.3190517],[106.8399915,-6.3185661],[106.8404002,-6.3183562],[106.8409536,-6.3182207],[106.8415269,-6.3181014],[106.8420066,-6.3180217],[106.8424229,-6.3179452],[106.8427737,-6.3180027],[106.8430559,-6.3181371],[106.8432751,-6.3183815],[106.8435535,-6.3184515],[106.8438739,-6.3183851],[106.8440742,-6.3182205],[106.8441609,-6.3178519],[106.8441586,-6.3173463],[106.8441428,-6.3169462],[106.8441315,-6.3168341],[106.8443164,-6.316598],[106.8446184,-6.3164833],[106.8450222,-6.3165072],[106.8457417,-6.3170032],[106.845961,-6.317056],[106.8461537,-6.3170318],[106.8463103,-6.3169358],[106.846652,-6.3165761],[106.8467406,-6.3163097],[106.8470188,-6.3158329],[106.8473501,-6.3155245],[106.8477074,-6.3152761],[106.8483541,-6.3150691],[106.8485693,-6.3151489],[106.8488872,-6.3154276],[106.8489702,-6.3156113],[106.8489765,-6.3160596],[106.8487196,-6.3165671],[106.8486545,-6.3169738],[106.8485476,-6.3172353],[106.848211,-6.3175183],[106.8478687,-6.3176159],[106.8471571,-6.3176216],[106.8470222,-6.3176446],[106.8469346,-6.317756],[106.8468908,-6.3178841],[106.8469177,-6.3180318],[106.8470161,-6.3181297],[106.8472201,-6.3182025],[106.8479925,-6.3182364],[106.8483667,-6.3183005],[106.8489377,-6.318675],[106.8492013,-6.3187394],[106.8493505,-6.3187218],[106.8494421,-6.3185717],[106.8494724,-6.3183177],[106.8494452,-6.3180594],[106.8494241,-6.3178432],[106.8494706,-6.3175899],[106.8495314,-6.3174727],[106.8497138,-6.317302],[106.8501084,-6.3170792],[106.8515514,-6.3163207],[106.8517981,-6.3160825],[106.8518688,-6.3158641],[106.8518004,-6.315671],[106.8514348,-6.3150824],[106.8512716,-6.3147643],[106.8512232,-6.3145539],[106.8512896,-6.3142082],[106.8515051,-6.3137137],[106.851799,-6.3131773],[106.8521356,-6.3127899],[106.8522758,-6.3124669],[106.8523115,-6.3119582],[106.8522917,-6.3113964],[106.8524188,-6.3110012],[106.8525434,-6.3108889],[106.8526763,-6.3108465],[106.8528203,-6.3108504],[106.8538973,-6.3117648],[106.8548245,-6.3124936],[106.8548643,-6.3127439],[106.8547418,-6.3133069],[106.8547703,-6.3135534],[106.8548824,-6.3137628],[106.8549952,-6.3138489],[106.8551812,-6.3138851],[106.8555499,-6.3137978],[106.8557733,-6.3136528],[106.8560364,-6.3134738],[106.8562135,-6.3133119],[106.8563296,-6.3131484],[106.8565746,-6.3128407],[106.8568828,-6.312631],[106.8572049,-6.3123259],[106.8575763,-6.312056],[106.8579852,-6.3117151],[106.8582194,-6.3113914],[106.8583813,-6.3111895],[106.8584205,-6.3110625],[106.858397,-6.3109067],[106.8583204,-6.3107684],[106.8581973,-6.3106162],[106.8581011,-6.3105655],[106.8579249,-6.3105375],[106.8575848,-6.3106167],[106.8573755,-6.310662],[106.8572356,-6.3106216],[106.8570487,-6.31052],[106.8568916,-6.3103925],[106.8568182,-6.310263],[106.85682,-6.3100923],[106.8568402,-6.3098365],[106.8568809,-6.3094162],[106.8569212,-6.3092669],[106.8570156,-6.3089834],[106.8571414,-6.3086667],[106.8573292,-6.3084086],[106.8575366,-6.3081909],[106.8576369,-6.3080923],[106.857703,-6.3079805],[106.8577488,-6.3078631],[106.8577768,-6.3077256],[106.8577924,-6.3076072],[106.8577737,-6.3074622],[106.8576357,-6.3071706],[106.857532,-6.3069587],[106.8574908,-6.306697],[106.8575172,-6.3064209],[106.8575732,-6.3061925],[106.8576882,-6.3060684],[106.857943,-6.3060124],[106.858222,-6.3059591],[106.8584473,-6.3058284],[106.8585755,-6.305665],[106.8585554,-6.305481],[106.8585116,-6.3052785],[106.8584507,-6.3051748],[106.8583427,-6.3050446],[106.8581818,-6.304914],[106.8577517,-6.3047218],[106.8572991,-6.3045564],[106.8568222,-6.3044225],[106.8564449,-6.3042677],[106.8560332,-6.3040457],[106.8554379,-6.303741],[106.8551413,-6.3035898],[106.8548422,-6.3033433],[106.8546439,-6.3031306],[106.8545478,-6.3029759],[106.8544607,-6.3028243],[106.8544527,-6.3026206],[106.8544473,-6.302394],[106.8545197,-6.30229],[106.854632,-6.3021293],[106.854814,-6.301792],[106.8550064,-6.3013698],[106.855058,-6.301261],[106.8550965,-6.3011197],[106.855091,-6.301005],[106.8550699,-6.3006703],[106.8550256,-6.3002563],[106.854896,-6.2996806],[106.8548477,-6.2995234],[106.8547113,-6.2993922],[106.8545225,-6.2993757],[106.8542523,-6.2994381],[106.853879,-6.2995663],[106.8534764,-6.299752],[106.8531002,-6.2997875],[106.8527824,-6.2998446],[106.8525169,-6.2999246],[106.8523988,-6.300058],[106.852246,-6.3003832],[106.8520502,-6.3008497],[106.8519563,-6.3009724],[106.8518597,-6.3010603],[106.8517069,-6.3010843],[106.8515379,-6.3010497],[106.8512053,-6.3008204],[106.8507091,-6.3003752],[106.8499768,-6.299746],[106.8497006,-6.2993461],[106.8496362,-6.2991835],[106.8496121,-6.2990262],[106.8496577,-6.2988342],[106.8498132,-6.2986929],[106.8499271,-6.2986323],[106.8500067,-6.2986234],[106.8501535,-6.298625],[106.8503482,-6.2986432],[106.8505349,-6.2986558],[106.8507124,-6.2986793],[106.8509042,-6.2987666],[106.8512884,-6.2990248],[106.8516049,-6.2992927],[106.8518051,-6.2993638],[106.8520272,-6.2992725],[106.8522194,-6.2988369],[106.8523216,-6.2983691],[106.8509457,-6.2979206],[106.8505309,-6.2977403],[106.850341,-6.297653],[106.850285,-6.297657],[106.850226,-6.297703],[106.8501249,-6.2977661],[106.8499878,-6.2977762],[106.849879,-6.297758],[106.8498582,-6.2977231],[106.849864,-6.2975882],[106.8494768,-6.2976511],[106.8489631,-6.2977448],[106.8489006,-6.297664],[106.8484774,-6.2975838],[106.847737,-6.297452],[106.8471465,-6.2973245],[106.8470935,-6.297313],[106.846987,-6.29729],[106.8463715,-6.2971745],[106.8463023,-6.2971628],[106.845818,-6.297081],[106.8456041,-6.2970397],[106.8454162,-6.2970077],[106.845194,-6.296967],[106.8450008,-6.2969253],[106.8448767,-6.2969048],[106.8444839,-6.2967734],[106.8442385,-6.2964803],[106.8441363,-6.296384],[106.8439333,-6.2961942],[106.8436179,-6.2960245],[106.8432514,-6.2959054],[106.842906,-6.295811],[106.8418985,-6.295553],[106.8415608,-6.295446],[106.8410377,-6.2952802],[106.8406358,-6.2951409],[106.8404626,-6.2959398],[106.8403338,-6.296518],[106.840285,-6.2968005],[106.8402506,-6.297475],[106.840205,-6.2979434],[106.8401693,-6.2983491],[106.8400641,-6.2998908],[106.8398676,-6.3017207],[106.8398807,-6.3025406],[106.8387217,-6.3023198],[106.8377462,-6.3019839],[106.8374931,-6.3019946],[106.8372464,-6.3020421],[106.8371507,-6.3021078],[106.8371028,-6.3023414],[106.8371005,-6.3026042],[106.8371433,-6.3028674],[106.8371584,-6.303092],[106.8371754,-6.3034266],[106.8371705,-6.3037277],[106.8372509,-6.3048359],[106.8373351,-6.305472],[106.8372044,-6.3064989],[106.8372003,-6.3072274],[106.8371635,-6.3077763],[106.8371192,-6.3080961],[106.8370524,-6.308578],[106.836919,-6.3091555],[106.8367938,-6.309608],[106.8367531,-6.3097552],[106.8367,-6.3099647],[106.8366697,-6.3102867],[106.8366559,-6.3106098],[106.8366499,-6.3107517],[106.8366246,-6.3110912],[106.8366015,-6.3115682],[106.8365579,-6.3118065],[106.8364969,-6.3122366],[106.8363014,-6.3134073],[106.836293,-6.3134577],[106.8362283,-6.3138571],[106.8362239,-6.3139569],[106.8362398,-6.3140706],[106.8362464,-6.3141325],[106.8362292,-6.3142315],[106.8361801,-6.3143833],[106.8361445,-6.3145317],[106.8360759,-6.3149103],[106.8360033,-6.3152468],[106.8359463,-6.3155518],[106.8359068,-6.3157636],[106.8359103,-6.3160695],[106.8359115,-6.3161761],[106.8359119,-6.3162133],[106.8358521,-6.3163427],[106.8356691,-6.3167391],[106.8356088,-6.3168723],[106.8354667,-6.3171218],[106.8354051,-6.3172866],[106.8353105,-6.317784],[106.8352136,-6.3183555],[106.8347286,-6.3183183],[106.8343117,-6.3180739],[106.8341366,-6.3180776],[106.8337859,-6.3183566],[106.83357,-6.3186205],[106.8334964,-6.3188073],[106.8334181,-6.3189945],[106.8333153,-6.3192395],[106.8327093,-6.3201249],[106.8323798,-6.3206234],[106.8319534,-6.3213239],[106.8309827,-6.3211652],[106.8301862,-6.3210786],[106.8298004,-6.3210291],[106.8295888,-6.321091],[106.8293075,-6.3215363],[106.8290753,-6.321912],[106.8289816,-6.3218875],[106.8289142,-6.3218841],[106.8285967,-6.321869],[106.827583,-6.3218206],[106.8274934,-6.3218062],[106.8271183,-6.3217837],[106.8253474,-6.3215221],[106.8254498,-6.320744],[106.825441,-6.3202993],[106.8253216,-6.3200693],[106.8251173,-6.3198463],[106.8251273,-6.3195194],[106.8250061,-6.3185175],[106.8249029,-6.3180566],[106.824782,-6.317833],[106.8241996,-6.3177983],[106.8237702,-6.3177682],[106.8236505,-6.3177271],[106.8236905,-6.3174199],[106.8235307,-6.317372],[106.8231254,-6.3173824],[106.8220497,-6.3175506],[106.8215844,-6.3175411],[106.8207271,-6.3174866],[106.8205064,-6.3174749],[106.8204764,-6.317415],[106.8191413,-6.3172656],[106.8181743,-6.3171317],[106.8180067,-6.3172587],[106.8176697,-6.3172355],[106.8164023,-6.3168499],[106.8163993,-6.3167757],[106.8164292,-6.3164686],[106.8165156,-6.3162012],[106.8165388,-6.3160691],[106.816489,-6.3160361],[106.8163805,-6.31602],[106.8163469,-6.3160133],[106.8163048,-6.3160063],[106.8162912,-6.3159836],[106.8162895,-6.3159252],[106.8163008,-6.3158716],[106.8163149,-6.3158238],[106.8163451,-6.3156976],[106.8163853,-6.3155218],[106.8164281,-6.3153519],[106.8163911,-6.3152113],[106.8163868,-6.3149537],[106.8163849,-6.314885],[106.8163789,-6.3146989],[106.8163766,-6.3146279],[106.8163582,-6.314429],[106.8163458,-6.3143146],[106.8163358,-6.3142273],[106.8162692,-6.3133905],[106.8162605,-6.3119846],[106.8162619,-6.3118769],[106.81626,-6.3118041],[106.816256,-6.3116669],[106.8162567,-6.3114274],[106.8162515,-6.3111888],[106.816245,-6.3108764],[106.8161574,-6.3107129],[106.8161219,-6.3106566],[106.8160634,-6.3106673],[106.8158383,-6.3107081],[106.8156168,-6.3107458],[106.8151317,-6.3107775],[106.8148956,-6.3107918],[106.8145756,-6.3107897],[106.8143492,-6.3107877],[106.8142062,-6.3107885],[106.8139298,-6.310745],[106.8137512,-6.3107273],[106.8137302,-6.3107285],[106.8129082,-6.3107565],[106.8124239,-6.3107419],[106.8119543,-6.3106908],[106.8112572,-6.3108987],[106.8107215,-6.3108148],[106.8106041,-6.3108002],[106.8096135,-6.3109023],[106.8093126,-6.3116609],[106.8091915,-6.3116973],[106.8087884,-6.3114653],[106.8084715,-6.311284],[106.8082669,-6.3111576],[106.8080735,-6.3110376],[106.8080496,-6.3110314],[106.808007,-6.3110706],[106.8079911,-6.3110905],[106.8079762,-6.3111071],[106.8079632,-6.3111805],[106.8079523,-6.3112383],[106.8079399,-6.3112962],[106.8079184,-6.3113778],[106.8079009,-6.3114152],[106.8079083,-6.3115209],[106.8079193,-6.3115592],[106.8079468,-6.3116194],[106.8080129,-6.3116868],[106.8080835,-6.3117835],[106.8081284,-6.3118555],[106.8081743,-6.3119348],[106.808211,-6.3120561],[106.8082458,-6.3122165],[106.8082715,-6.3124335],[106.8082642,-6.3125092],[106.8082477,-6.3125657],[106.8082247,-6.3126423],[106.8081725,-6.3127316],[106.8080734,-6.3128748],[106.8080094,-6.3129811],[106.8079324,-6.3131634],[106.8079214,-6.3132072],[106.8079305,-6.3132455],[106.8080131,-6.3133203],[106.8080727,-6.3133467],[106.8082351,-6.3133403],[106.8082883,-6.3133421],[106.8083525,-6.3133604],[106.8084662,-6.3134894],[106.8087891,-6.31388],[106.8089028,-6.3139384],[106.8089652,-6.3140168],[106.8090074,-6.3141134],[106.8089817,-6.3142593],[106.8090915,-6.3146235],[106.8091257,-6.3147138],[106.8091624,-6.3148054],[106.8091739,-6.3148667],[106.809184,-6.3149308],[106.8091861,-6.3151551],[106.809177,-6.3152918],[106.8092063,-6.3154523],[106.8092247,-6.3156018],[106.809188,-6.3157222],[106.8091641,-6.3158425],[106.8091183,-6.3159464],[106.8090779,-6.3160595],[106.80901,-6.3161233],[106.8088816,-6.3161142],[106.8087459,-6.3160595],[106.8086431,-6.3160905],[106.8085899,-6.3161762],[106.8086028,-6.3163166],[106.8086615,-6.3164114],[106.8087935,-6.3164625],[106.8088211,-6.3165062],[106.8088192,-6.3165755],[106.8088009,-6.3166685],[106.8087807,-6.3167724],[106.8087312,-6.316818],[106.8086468,-6.3168326],[106.8084835,-6.3168271],[106.8083514,-6.3168344],[106.808267,-6.3168545],[106.8079845,-6.3172957],[106.8078249,-6.3173595],[106.8076818,-6.3176768],[106.80768,-6.3178227],[106.8076873,-6.3179731],[106.8078084,-6.3182776],[106.8079478,-6.3184709],[106.8080836,-6.3186386],[106.8080836,-6.318779],[106.8080157,-6.3188356],[106.8078873,-6.3188884],[106.8077332,-6.3189413],[106.8076195,-6.3189833],[106.8075626,-6.319058],[106.807425,-6.3193115],[106.8072893,-6.3194045],[106.8072507,-6.319512],[106.8073003,-6.319636],[106.8074415,-6.3197363],[106.8074954,-6.3198197],[106.8075405,-6.3198894],[106.8075516,-6.319987],[106.8075163,-6.3200524],[106.8073402,-6.3202238],[106.8073292,-6.3202785],[106.8073732,-6.3204791],[106.8074144,-6.3206953],[106.8073879,-6.320882],[106.8073032,-6.320971],[106.8071349,-6.3210562],[106.8069255,-6.3210594],[106.8067724,-6.3211011],[106.8066366,-6.3211919],[106.8065403,-6.3213318],[106.8065045,-6.3216554],[106.8065796,-6.3216794],[106.8067646,-6.321658],[106.8068988,-6.32169],[106.8070171,-6.3218181],[106.8071965,-6.321938],[106.8072595,-6.3221186],[106.8071965,-6.3222179],[106.8070248,-6.3224232],[106.8068986,-6.3225005],[106.80677,-6.3226231],[106.8065081,-6.3226554],[106.8063301,-6.3226578],[106.8061534,-6.3226707],[106.806137,-6.3226774],[106.8060193,-6.3227429],[106.8059625,-6.3229393],[106.8059995,-6.323062],[106.806118,-6.3232166],[106.806197,-6.3233148],[106.8062859,-6.3234031],[106.8063724,-6.3235995],[106.8063822,-6.3236829],[106.8062662,-6.3237663],[106.8061724,-6.3238105],[106.8060448,-6.3238158],[106.8060146,-6.3238097],[106.8058242,-6.3236927],[106.8056217,-6.3235847],[106.8055007,-6.3235675],[106.8053674,-6.3235651],[106.8051896,-6.3236117],[106.8051032,-6.3236559],[106.8049847,-6.3237123],[106.8049415,-6.3237702],[106.8049285,-6.3238307],[106.804922,-6.3238871],[106.8049285,-6.323937],[106.8049406,-6.3239851],[106.8049685,-6.324023],[106.804989,-6.3240656],[106.8050281,-6.3241173],[106.8050272,-6.3241867],[106.8049955,-6.3242315],[106.8047583,-6.3243147],[106.8045239,-6.3245071],[106.8045462,-6.3246143],[106.8046318,-6.3246587],[106.8046525,-6.3247772],[106.804615,-6.3249121],[106.8045834,-6.3250452],[106.8045425,-6.3250877],[106.8044978,-6.3251192],[106.8043155,-6.3251469],[106.8041629,-6.3251839],[106.8040922,-6.3252505],[106.804081,-6.3253041],[106.8040662,-6.3253688],[106.8041089,-6.3255094],[106.8041666,-6.3257331],[106.8041555,-6.3259791],[106.8041406,-6.3261243],[106.8042169,-6.3267835],[106.8041462,-6.3269185],[106.8041034,-6.3270702],[106.8037889,-6.3272366],[106.8036773,-6.3272551],[106.8035563,-6.3272939],[106.8034391,-6.3274788],[106.8033759,-6.3276841],[106.8033387,-6.3280928],[106.8033256,-6.3285274],[106.8033982,-6.3291506],[106.8034559,-6.3297719],[106.8034559,-6.3299069],[106.8033294,-6.3301408],[106.8030986,-6.3304913],[106.8027861,-6.3306263],[106.8026279,-6.3306744],[106.8025033,-6.3307909],[106.8023097,-6.3310498],[106.8021975,-6.3311546],[106.8020058,-6.3312872],[106.8018933,-6.3313327],[106.8016513,-6.3312481],[106.8015614,-6.3312492],[106.8012976,-6.3315703],[106.8012846,-6.3318015],[106.8014148,-6.3320345],[106.8018037,-6.3322749],[106.8018558,-6.3323821],[106.8018744,-6.3326327],[106.8019227,-6.3328657],[106.8017991,-6.3333804],[106.8016373,-6.3335508],[106.8014167,-6.3336535],[106.8010483,-6.3336868],[106.8007245,-6.333598],[106.8005124,-6.333561],[106.8001142,-6.3334538],[106.7999505,-6.3333576],[106.7997982,-6.333403],[106.7997012,-6.333524],[106.7993886,-6.3334057],[106.79937,-6.3335425],[106.7994908,-6.3337211],[106.7994779,-6.3338791],[106.7994295,-6.3341213],[106.7992584,-6.3342286],[106.7992577,-6.3344805],[106.7991831,-6.3347946],[106.7991244,-6.3350011],[106.799143,-6.3351162],[106.7989793,-6.3359336],[106.7988863,-6.3363108],[106.7987188,-6.3364662],[106.7986843,-6.3365685],[106.7986675,-6.3366982],[106.7987547,-6.3369608],[106.7988647,-6.3370456],[106.7989762,-6.3372058],[106.798886,-6.3379386],[106.7988156,-6.3379951],[106.7987198,-6.3381444],[106.7987463,-6.3382614],[106.7988086,-6.3383829],[106.7989735,-6.3386558],[106.7993027,-6.3390056],[106.799748,-6.3394476],[106.7998123,-6.3396208],[106.7998419,-6.3399297],[106.7998754,-6.3401486],[106.8000712,-6.3404792],[106.799918,-6.3406665],[106.7999236,-6.3408724],[106.8001782,-6.3409552],[106.8001737,-6.341113],[106.7999668,-6.3412434],[106.7997557,-6.341219],[106.7994753,-6.3417847],[106.7995347,-6.3421853],[106.7996967,-6.3425069],[106.7994992,-6.3427272],[106.7995253,-6.343045],[106.7994489,-6.3431076],[106.7993604,-6.343141],[106.7990364,-6.3432037],[106.7989626,-6.3433095],[106.798958,-6.3435648],[106.7989762,-6.3438087],[106.7989337,-6.3439664],[106.7987795,-6.3441232],[106.7985848,-6.3442093],[106.7983358,-6.3442343],[106.7982707,-6.3442988],[106.798212,-6.3446529],[106.7981341,-6.3446881],[106.7976262,-6.3446898],[106.7975342,-6.3447602],[106.7973254,-6.3451682],[106.79729,-6.3455938],[106.7973396,-6.34568],[106.7972971,-6.3458489],[106.7972051,-6.3459913],[106.7970759,-6.3460705],[106.7968211,-6.3463758],[106.7965043,-6.346605],[106.7962212,-6.3465804],[106.7959275,-6.3464274],[106.795862,-6.3463412],[106.7958037,-6.346101],[106.7956054,-6.3459578],[106.7954727,-6.3459683],[106.7945189,-6.3465995],[106.7944062,-6.3465409],[106.7942185,-6.3466262],[106.7941809,-6.3466821],[106.7941943,-6.3467994],[106.7938886,-6.34701],[106.7933428,-6.3475658],[106.7926177,-6.3479778],[106.792554,-6.3482134],[106.7924372,-6.3483295],[106.7924043,-6.3485011],[106.7923947,-6.3485511],[106.7927486,-6.3488114],[106.7929503,-6.3494797],[106.7930424,-6.3495219],[106.7930742,-6.3495888],[106.7930211,-6.3496732],[106.7928866,-6.3497119],[106.7928973,-6.3498385],[106.792961,-6.3499335],[106.7930565,-6.3499581],[106.793053,-6.3500953],[106.7931061,-6.3501481],[106.7932052,-6.3501094],[106.793322,-6.3499546],[106.7934777,-6.3499229],[106.7935131,-6.3498174],[106.7935662,-6.3498104],[106.7936653,-6.3499581],[106.7937467,-6.3502254],[106.7937254,-6.3504541],[106.7939838,-6.3505702],[106.7940333,-6.3506722],[106.7939915,-6.3512764],[106.7939401,-6.3513623],[106.7931953,-6.3517011],[106.7925228,-6.3522627],[106.7924934,-6.3524173],[106.7927166,-6.3528194],[106.7930526,-6.3530604],[106.7932691,-6.3531637],[106.7933191,-6.3531875],[106.7932141,-6.3538678],[106.7932507,-6.353926],[106.7935028,-6.3539604],[106.7937228,-6.3540799],[106.793919,-6.3542255],[106.794002,-6.3542986],[106.7940264,-6.3545208],[106.7939329,-6.3546259],[106.7937134,-6.3546663],[106.7933515,-6.354832],[106.7931117,-6.3550542],[106.7930019,-6.3552966],[106.7930507,-6.3555835],[106.7930263,-6.3561047],[106.7932052,-6.3564078],[106.7932111,-6.3566821],[106.7932174,-6.3569775],[106.7931229,-6.3570933],[106.7929775,-6.3571593],[106.7929755,-6.3572517],[106.7929714,-6.3574421],[106.7929653,-6.3577249],[106.7929043,-6.35783],[106.7926482,-6.3578825],[106.7925506,-6.3579553],[106.7924978,-6.3581249],[106.792571,-6.3587108],[106.7926371,-6.3588383],[106.7926722,-6.3589059],[106.7935995,-6.3599351],[106.7937093,-6.3601452],[106.7936762,-6.3605658],[106.7935258,-6.3606759],[106.7935506,-6.3608364],[106.7935765,-6.3610037],[106.7936366,-6.3613919],[106.7934613,-6.3618704],[106.7935416,-6.3621078],[106.7935385,-6.3622704],[106.7934491,-6.3624401],[106.7934085,-6.3626624],[106.7932092,-6.3628078],[106.7932011,-6.3628886],[106.793258,-6.3629896],[106.7932255,-6.3630785],[106.7930466,-6.3632482],[106.7930913,-6.3634624],[106.7931658,-6.3635061],[106.793628,-6.3637775],[106.7936826,-6.3638794],[106.7936219,-6.3639862],[106.793776,-6.3640952],[106.7938041,-6.3643899],[106.7940282,-6.3644248],[106.7944625,-6.3642878],[106.7945536,-6.3643018],[106.7946143,-6.3644062],[106.7945821,-6.3646051],[106.7947591,-6.3649251],[106.7958696,-6.3649651],[106.7966072,-6.3650478],[106.7966474,-6.3649705],[106.7970712,-6.3649438],[106.7980099,-6.3649489],[106.7981834,-6.3650104],[106.7982727,-6.3645253],[106.7983183,-6.364464],[106.7999149,-6.364422],[106.8002885,-6.3643686],[106.8003235,-6.3644615],[106.8012389,-6.3643042],[106.802838,-6.3638085],[106.8033032,-6.3635785],[106.8049718,-6.3634664],[106.8071207,-6.3634531],[106.8077961,-6.3638457],[106.809448,-6.364124],[106.810574,-6.364198],[106.81066,-6.362993],[106.811175,-6.36277],[106.812087,-6.361703],[106.812271,-6.361551],[106.813804,-6.359987],[106.813793,-6.359208],[106.814641,-6.359432],[106.814888,-6.358355],[106.815263,-6.358536],[106.816143,-6.356212],[106.8166402,-6.3563375],[106.8171144,-6.3564572],[106.818889,-6.356905],[106.819243,-6.356201],[106.820005,-6.356628],[106.820187,-6.356393],[106.820852,-6.356786],[106.820891,-6.356687],[106.82103,-6.356453],[106.821016,-6.356247],[106.821048,-6.356059],[106.821177,-6.35587],[106.8212442,-6.3557255],[106.8214211,-6.35567],[106.821598,-6.3555952],[106.8217989,-6.3556019],[106.8222924,-6.3557815],[106.8227411,-6.3558835],[106.8231652,-6.3560487],[106.823527,-6.3561137],[106.8238415,-6.3561725],[106.823966,-6.3561014],[106.826849,-6.3560967],[106.827934,-6.356095],[106.830245,-6.355924],[106.830827,-6.356043],[106.8318027,-6.3558439],[106.8318507,-6.3553587],[106.8320305,-6.3546394],[106.832543,-6.354933],[106.833091,-6.355195],[106.833969,-6.355177],[106.835202,-6.355017],[106.8353385,-6.3549449],[106.836001,-6.3545329],[106.835925,-6.354394],[106.835898,-6.3541966],[106.835851,-6.353849],[106.8358831,-6.3536379],[106.835925,-6.35342],[106.835831,-6.352766],[106.835593,-6.352514],[106.835475,-6.352222],[106.835612,-6.351937],[106.835991,-6.351882],[106.8364081,-6.3519533],[106.836746,-6.352011],[106.8374775,-6.3520784],[106.837962,-6.352123],[106.838531,-6.352113],[106.839164,-6.351983],[106.839374,-6.351649],[106.8393942,-6.3513829],[106.839412,-6.351217],[106.839271,-6.3508507],[106.838526,-6.349823],[106.83818,-6.3481637],[106.838104,-6.347899],[106.837843,-6.3473487],[106.837708,-6.347172],[106.837746,-6.346911],[106.83842,-6.3466357],[106.83926,-6.346262],[106.839722,-6.3450798],[106.839813,-6.344746],[106.839791,-6.344047],[106.839528,-6.343569],[106.838635,-6.343253],[106.8380353,-6.3434502],[106.837674,-6.343569],[106.8374614,-6.3439556],[106.8372964,-6.3442558],[106.837149,-6.344524],[106.8370499,-6.3446501],[106.836785,-6.344987],[106.836188,-6.345233],[106.835941,-6.345279],[106.835538,-6.345126],[106.83519,-6.344756],[106.8349439,-6.3445257],[106.8354902,-6.3442088],[106.8355166,-6.3439857],[106.8355094,-6.3438966],[106.835571,-6.3437883],[106.8358031,-6.3434871],[106.8359309,-6.3432705],[106.8361488,-6.3430116],[106.8362862,-6.3428328],[106.8364756,-6.3425456],[106.8367279,-6.342143],[106.836888,-6.3419873],[106.8370581,-6.3418349],[106.8372239,-6.3417643],[106.8373897,-6.3417078],[106.8375791,-6.3415807],[106.8377922,-6.3414395],[106.8379769,-6.3412888],[106.8381474,-6.3411759],[106.838299,-6.3410864],[106.8384269,-6.3410864],[106.8385737,-6.3411759],[106.8387158,-6.3414159],[106.8388626,-6.341656],[106.8389952,-6.3418537],[106.8392462,-6.3420938],[106.8394357,-6.3421832],[106.8398619,-6.3423574],[106.8401082,-6.3424562],[106.8403592,-6.3424939],[106.8406197,-6.3424939],[106.840757,-6.3424138],[106.8408734,-6.3422358],[106.8409512,-6.3419996],[106.8409228,-6.3416325],[106.840866,-6.3414771],[106.8407807,-6.3412135],[106.8405723,-6.3409546],[106.8403734,-6.340884],[106.840184,-6.3408887],[106.8397435,-6.3410017],[106.8395541,-6.3410629],[106.8394215,-6.3410111],[106.8393125,-6.3408087],[106.8392557,-6.3405404],[106.8392036,-6.3404368],[106.8391846,-6.3403333],[106.8392036,-6.3402109],[106.8393031,-6.3400556],[106.839393,-6.339839],[106.8394499,-6.3397119],[106.8395351,-6.3395378],[106.8396677,-6.3393824],[106.8398572,-6.3392177],[106.8400229,-6.3390624],[106.840165,-6.3388505],[106.840274,-6.338634],[106.8403071,-6.3384645],[106.8403545,-6.3382857],[106.8403639,-6.3380691],[106.8403308,-6.3379232],[106.840255,-6.3376643],[106.8402266,-6.3375043],[106.8402029,-6.3373395],[106.8402361,-6.3371183],[106.8403024,-6.3369347],[106.8403308,-6.3367417],[106.8403829,-6.3365958],[106.8404492,-6.336497],[106.8404634,-6.3364169],[106.8404492,-6.3363087],[106.8402597,-6.3360968],[106.8401271,-6.3360121],[106.8400419,-6.3360215],[106.839933,-6.3359698],[106.8398051,-6.3357297],[106.8397246,-6.335138],[106.8397477,-6.3348194],[106.8397672,-6.334439],[106.8398052,-6.3338809],[106.8398493,-6.3335165],[106.8399205,-6.3331168],[106.8400007,-6.332735],[106.8401289,-6.3321853],[106.840335,-6.3320693],[106.8407214,-6.3321539],[106.8413745,-6.3321952],[106.8421049,-6.3321917],[106.8425968,-6.3321015],[106.8433255,-6.3318559],[106.8434511,-6.3317476],[106.8435224,-6.3316188],[106.8434931,-6.3314852],[106.8434395,-6.3314027],[106.8433006,-6.3312539],[106.8430874,-6.3311476],[106.8426989,-6.3310709],[106.8422143,-6.3309554],[106.8419847,-6.3308614],[106.841706,-6.3305675],[106.8413613,-6.3302784],[106.8410701,-6.3300614],[106.8408075,-6.3299064],[106.8405797,-6.3297119],[106.8404213,-6.3295865],[106.8402972,-6.3293747],[106.8402684,-6.3292666],[106.8402696,-6.3291103],[106.8403086,-6.3289173],[106.8404252,-6.3287271],[106.8405768,-6.3284801],[106.8406796,-6.3281952],[106.8407727,-6.3279031],[106.8408727,-6.3275977],[106.8409905,-6.3273426],[106.841124,-6.3271392],[106.8412127,-6.3269003],[106.8412485,-6.3267939]]]},"properties":{"@id":"relation/7415048","admin_level":"6","boundary":"administrative","name":"Jagakarsa","type":"boundary","wikidata":"Q192994","wikipedia":"id:Jagakarsa, Jakarta Selatan"},"id":"relation/7415048"}
]}